*******************************************************************************
Ephemeris / WWW_USER Fri Mar  7 10:41:57 2025 Pasadena, USA      / Horizons    
*******************************************************************************
Target body name: (2018 TB)                       {source: JPL#26}
Center body name: Earth (399)                     {source: DE441}
Center-site name: Mauna Kea
*******************************************************************************
Start time      : A.D. 2019-Jan-16 04:13:00.0000 UT      
Stop  time      : A.D. 2019-Jan-16 16:49:00.0000 UT      
Step-size       : 1 minutes
*******************************************************************************
Target pole/equ : undefined
Target radii    : undefined                                                    
Center geodetic : 204.5278, 19.8260847, 4.21024   {E-lon(deg),Lat(deg),Alt(km)}
Center cylindric: 204.5278, 6006.35451, 2151.0229 {E-lon(deg),Dxy(km),Dz(km)}
Center pole/equ : ITRF93                          {East-longitude positive}
Center radii    : 6378.137, 6378.137, 6356.752 km {Equator_a, b, pole_c}       
Target primary  : Sun
Vis. interferer : MOON (R_eq= 1737.400) km        {source: DE441}
Rel. light bend : Sun                             {source: DE441}
Rel. lght bnd GM: 1.3271E+11 km^3/s^2                                          
Small-body perts: Yes                             {source: SB441-N16}
Atmos refraction: NO (AIRLESS)
RA format       : HMS
Time format     : CAL 
Calendar mode   : Mixed Julian/Gregorian
RTS-only print  : NO       
EOP file        : eop.250306.p250602                                           
EOP coverage    : DATA-BASED 1962-JAN-20 TO 2025-MAR-06. PREDICTS-> 2025-JUN-01
Units conversion: 1 au= 149597870.700 km, c= 299792.458 km/s, 1 day= 86400.0 s 
Table cut-offs 1: Elevation (-90.0deg=NO ),Airmass (>38.000=NO), Daylight (YES)
Table cut-offs 2: Solar elongation (  0.0,180.0=NO ),Local Hour Angle( 0.0=NO )
Table cut-offs 3: RA/DEC angular rate (     0.0=NO )                           
*******************************************************************************
Initial IAU76/J2000 heliocentric ecliptic osculating elements (au, days, deg.):
  EPOCH=  2458410.5 ! 2018-Oct-19.00 (TDB)         Residual RMS= .12604        
   EC= .5817616216321111   QR= 1.001672821897195   TP= 2458383.1822299529      
   OM= 14.42282174156359   W=  341.1556337077549   IN= 3.61300419916586        
  Equivalent ICRF heliocentric cartesian coordinates (au, au/d):
   X= 9.381709462996228E-01  Y= 4.515017153732180E-01  Z= 2.129237315158303E-01
  VX=-5.799214133182419E-03 VY= 1.778204046057418E-02 VZ= 9.138573561666745E-03
Asteroid physical parameters (km, seconds, rotational period in hours):        
   GM= n.a.                RAD= n.a.               ROTPER= n.a.                
   H= 24.89                G= .150                 B-V= n.a.                   
                           ALBEDO= n.a.            STYP= n.a.                  
*******************************************************************************
 Date__(UT)__HR:MN     R.A._________(ICRF)_________DEC
******************************************************
$$SOE
 2019-Jan-16 12:25  m  04 09 03.015296 +27 50 04.69889
 2019-Jan-16 12:26  m  04 09 03.061679 +27 50 04.62214
 2019-Jan-16 12:27  m  04 09 03.108075 +27 50 04.54538
 2019-Jan-16 12:28  m  04 09 03.154485 +27 50 04.46862
 2019-Jan-16 12:29  m  04 09 03.200909 +27 50 04.39186
 2019-Jan-16 12:30  m  04 09 03.247346 +27 50 04.31508
 2019-Jan-16 12:31  m  04 09 03.293798 +27 50 04.23831
 2019-Jan-16 12:32  m  04 09 03.340263 +27 50 04.16153
 2019-Jan-16 12:33  m  04 09 03.386743 +27 50 04.08475
 2019-Jan-16 12:34  m  04 09 03.433236 +27 50 04.00796
 2019-Jan-16 12:35  m  04 09 03.479743 +27 50 03.93118
 2019-Jan-16 12:36     04 09 03.526263 +27 50 03.85439
 2019-Jan-16 12:37     04 09 03.572798 +27 50 03.77760
 2019-Jan-16 12:38     04 09 03.619347 +27 50 03.70080
 2019-Jan-16 12:39     04 09 03.665909 +27 50 03.62401
 2019-Jan-16 12:40     04 09 03.712485 +27 50 03.54722
 2019-Jan-16 12:41     04 09 03.759075 +27 50 03.47042
 2019-Jan-16 12:42     04 09 03.805679 +27 50 03.39363
 2019-Jan-16 12:43     04 09 03.852297 +27 50 03.31683
 2019-Jan-16 12:44     04 09 03.898929 +27 50 03.24004
 2019-Jan-16 12:45     04 09 03.945575 +27 50 03.16325
 2019-Jan-16 12:46     04 09 03.992234 +27 50 03.08646
 2019-Jan-16 12:47     04 09 04.038908 +27 50 03.00967
 2019-Jan-16 12:48     04 09 04.085595 +27 50 02.93288
 2019-Jan-16 12:49     04 09 04.132296 +27 50 02.85610
 2019-Jan-16 12:50     04 09 04.179011 +27 50 02.77932
 2019-Jan-16 12:51     04 09 04.225740 +27 50 02.70254
 2019-Jan-16 12:52     04 09 04.272483 +27 50 02.62576
 2019-Jan-16 12:53     04 09 04.319240 +27 50 02.54899
 2019-Jan-16 12:54     04 09 04.366011 +27 50 02.47223
 2019-Jan-16 12:55     04 09 04.412795 +27 50 02.39547
 2019-Jan-16 12:56     04 09 04.459593 +27 50 02.31871
 2019-Jan-16 12:57     04 09 04.506406 +27 50 02.24196
 2019-Jan-16 12:58     04 09 04.553232 +27 50 02.16522
 2019-Jan-16 12:59     04 09 04.600072 +27 50 02.08848
 2019-Jan-16 13:00     04 09 04.646926 +27 50 02.01175
 2019-Jan-16 13:01     04 09 04.693793 +27 50 01.93502
 2019-Jan-16 13:02     04 09 04.740675 +27 50 01.85830
 2019-Jan-16 13:03     04 09 04.787570 +27 50 01.78159
 2019-Jan-16 13:04     04 09 04.834480 +27 50 01.70489
 2019-Jan-16 13:05     04 09 04.881403 +27 50 01.62820
 2019-Jan-16 13:06     04 09 04.928340 +27 50 01.55151
 2019-Jan-16 13:07     04 09 04.975290 +27 50 01.47484
 2019-Jan-16 13:08     04 09 05.022255 +27 50 01.39817
 2019-Jan-16 13:09     04 09 05.069233 +27 50 01.32151
 2019-Jan-16 13:10     04 09 05.116226 +27 50 01.24487
 2019-Jan-16 13:11     04 09 05.163232 +27 50 01.16823
 2019-Jan-16 13:12     04 09 05.210252 +27 50 01.09161
 2019-Jan-16 13:13     04 09 05.257285 +27 50 01.01499
 2019-Jan-16 13:14     04 09 05.304333 +27 50 00.93839
 2019-Jan-16 13:15     04 09 05.351394 +27 50 00.86180
 2019-Jan-16 13:16     04 09 05.398469 +27 50 00.78522
 2019-Jan-16 13:17     04 09 05.445558 +27 50 00.70866
 2019-Jan-16 13:18     04 09 05.492661 +27 50 00.63210
 2019-Jan-16 13:19     04 09 05.539777 +27 50 00.55556
 2019-Jan-16 13:20     04 09 05.586907 +27 50 00.47904
 2019-Jan-16 13:21     04 09 05.634051 +27 50 00.40253
 2019-Jan-16 13:22     04 09 05.681209 +27 50 00.32603
 2019-Jan-16 13:23     04 09 05.728380 +27 50 00.24955
 2019-Jan-16 13:24     04 09 05.775565 +27 50 00.17308
 2019-Jan-16 13:25     04 09 05.822764 +27 50 00.09663
 2019-Jan-16 13:26     04 09 05.869977 +27 50 00.02020
 2019-Jan-16 13:27     04 09 05.917203 +27 49 59.94378
 2019-Jan-16 13:28     04 09 05.964443 +27 49 59.86738
 2019-Jan-16 13:29     04 09 06.011696 +27 49 59.79099
 2019-Jan-16 13:30     04 09 06.058963 +27 49 59.71463
 2019-Jan-16 13:31     04 09 06.106244 +27 49 59.63828
 2019-Jan-16 13:32     04 09 06.153539 +27 49 59.56194
 2019-Jan-16 13:33     04 09 06.200847 +27 49 59.48563
 2019-Jan-16 13:34     04 09 06.248169 +27 49 59.40934
 2019-Jan-16 13:35     04 09 06.295504 +27 49 59.33306
 2019-Jan-16 13:36     04 09 06.342853 +27 49 59.25680
 2019-Jan-16 13:37     04 09 06.390215 +27 49 59.18057
 2019-Jan-16 13:38     04 09 06.437591 +27 49 59.10435
 2019-Jan-16 13:39     04 09 06.484981 +27 49 59.02816
 2019-Jan-16 13:40     04 09 06.532384 +27 49 58.95198
 2019-Jan-16 13:41     04 09 06.579801 +27 49 58.87583
 2019-Jan-16 13:42     04 09 06.627231 +27 49 58.79970
 2019-Jan-16 13:43     04 09 06.674675 +27 49 58.72359
 2019-Jan-16 13:44     04 09 06.722132 +27 49 58.64750
 2019-Jan-16 13:45     04 09 06.769603 +27 49 58.57143
 2019-Jan-16 13:46     04 09 06.817087 +27 49 58.49539
 2019-Jan-16 13:47  s  04 09 06.864585 +27 49 58.41937
 2019-Jan-16 13:48     04 09 06.912096 +27 49 58.34338
 2019-Jan-16 13:49     04 09 06.959620 +27 49 58.26741
 2019-Jan-16 13:50     04 09 07.007158 +27 49 58.19146
 2019-Jan-16 13:51     04 09 07.054709 +27 49 58.11554
 2019-Jan-16 13:52     04 09 07.102274 +27 49 58.03964
 2019-Jan-16 13:53     04 09 07.149852 +27 49 57.96377
 2019-Jan-16 13:54     04 09 07.197443 +27 49 57.88793
 2019-Jan-16 13:55     04 09 07.245048 +27 49 57.81211
 2019-Jan-16 13:56     04 09 07.292666 +27 49 57.73631
 2019-Jan-16 13:57     04 09 07.340297 +27 49 57.66055
 2019-Jan-16 13:58     04 09 07.387941 +27 49 57.58481
 2019-Jan-16 13:59     04 09 07.435599 +27 49 57.50910
 2019-Jan-16 14:00     04 09 07.483270 +27 49 57.43342
 2019-Jan-16 14:01     04 09 07.530954 +27 49 57.35776
 2019-Jan-16 14:02     04 09 07.578651 +27 49 57.28213
 2019-Jan-16 14:03     04 09 07.626362 +27 49 57.20654
 2019-Jan-16 14:04     04 09 07.674086 +27 49 57.13097
 2019-Jan-16 14:05     04 09 07.721823 +27 49 57.05543
 2019-Jan-16 14:06     04 09 07.769572 +27 49 56.97992
 2019-Jan-16 14:07     04 09 07.817336 +27 49 56.90444
 2019-Jan-16 14:08     04 09 07.865112 +27 49 56.82899
 2019-Jan-16 14:09     04 09 07.912901 +27 49 56.75358
 2019-Jan-16 14:10     04 09 07.960703 +27 49 56.67819
 2019-Jan-16 14:11     04 09 08.008518 +27 49 56.60284
 2019-Jan-16 14:12     04 09 08.056347 +27 49 56.52751
 2019-Jan-16 14:13     04 09 08.104188 +27 49 56.45222
 2019-Jan-16 14:14     04 09 08.152042 +27 49 56.37697
 2019-Jan-16 14:15     04 09 08.199909 +27 49 56.30174
 2019-Jan-16 14:16     04 09 08.247789 +27 49 56.22655
 2019-Jan-16 14:17     04 09 08.295682 +27 49 56.15139
 2019-Jan-16 14:18     04 09 08.343588 +27 49 56.07627
 2019-Jan-16 14:19     04 09 08.391507 +27 49 56.00118
 2019-Jan-16 14:20     04 09 08.439438 +27 49 55.92613
 2019-Jan-16 14:21     04 09 08.487382 +27 49 55.85111
 2019-Jan-16 14:22     04 09 08.535339 +27 49 55.77612
 2019-Jan-16 14:23     04 09 08.583309 +27 49 55.70117
 2019-Jan-16 14:24     04 09 08.631292 +27 49 55.62626
 2019-Jan-16 14:25     04 09 08.679287 +27 49 55.55138
 2019-Jan-16 14:26     04 09 08.727295 +27 49 55.47654
 2019-Jan-16 14:27     04 09 08.775315 +27 49 55.40174
